OBJECT_NAME,OBJECT_ID,EPOCH,MEAN_MOTION,ECCENTRICITY,INCLINATION,RA_OF_ASC_NODE,ARG_OF_PERICENTER,MEAN_ANOMALY,EPHEMERIS_TYPE,CLASSIFICATION_TYPE,NORAD_CAT_ID,ELEMENT_SET_NO,REV_AT_EPOCH,BSTAR,MEAN_MOTION_DOT,MEAN_MOTION_DDOT
ONEWEB-0531,2022-138AK,2026-06-26T16:51:47.126592,13.20772269,.000285,87.9195,272.5389,95.6400,264.5058,0,U,54146,999,18056,-.86908E-4,-.22E-6,0
ONEWEB-0535,2022-138AL,2026-06-26T15:10:22.918080,13.19726110,.000212,87.9186,303.0775,92.8125,267.3250,0,U,54147,999,17808,.65891E-4,.39E-6,0
ONEWEB-0536,2022-138AM,2026-06-26T16:32:23.157888,13.20771650,.0003085,87.9185,272.5634,98.7555,261.3928,0,U,54148,999,18055,.12825E-4,.18E-6,0
ONEWEB-0527,2022-166A,2026-06-26T17:08:43.397952,13.21822988,.0002057,87.9248,242.1017,99.9545,260.1821,0,U,54642,999,17279,-.332E-3,-.124E-5,0
ONEWEB-0528,2022-166B,2026-06-26T17:09:55.448640,13.21824231,.0001991,87.9249,242.1041,104.3737,255.7618,0,U,54643,999,17280,-.37529E-3,-.142E-5,0
ONEWEB-0539,2022-166C,2026-06-26T16:15:25.041024,13.21827514,.0001892,87.9258,242.0835,91.9812,268.1538,0,U,54644,999,17279,.12391E-3,.64E-6,0
ONEWEB-0540,2022-166D,2026-06-26T16:25:17.873760,13.21827470,.0002016,87.9245,242.1118,94.7885,265.3480,0,U,54645,999,17278,.26075E-4,.24E-6,0
ONEWEB-0542,2022-166E,2026-06-26T14:40:57.353088,13.21824514,.0001891,87.9257,242.0955,90.6764,269.4586,0,U,54646,999,17278,-.25588E-4,.2E-7,0
ONEWEB-0545,2022-166F,2026-06-26T17:28:05.268000,13.21828048,.00019,87.9248,242.0835,82.5609,277.5740,0,U,54647,999,17276,-.11617E-3,-.35E-6,0
ONEWEB-0580,2022-166G,2026-06-26T16:51:43.262784,13.21827851,.0002089,87.9247,242.0882,86.3149,273.8224,0,U,54648,999,17280,-.17105E-3,-.58E-6,0
ONEWEB-0582,2022-166H,2026-06-26T14:14:18.398400,13.21827348,.0001948,87.9248,242.1027,85.3692,274.7664,0,U,54649,999,17276,.14555E-3,.73E-6,0
ONEWEB-0583,2022-166J,2026-06-26T16:20:16.260864,13.21826899,.0002033,87.9243,242.1080,93.9949,266.1418,0,U,54650,999,17278,-.10596E-2,-.425E-5,0
ONEWEB-0584,2022-166K,2026-06-26T16:49:19.293600,13.21833428,.0002507,87.9236,242.0909,95.7085,264.4335,0,U,54651,999,17277,.25137E-2,.1051E-4,0
ONEWEB-0585,2022-166L,2026-06-26T17:23:14.963136,13.21826883,.0002085,87.9250,242.0726,102.6332,257.5035,0,U,54652,999,17278,-.16285E-3,-.54E-6,0
ONEWEB-0586,2022-166M,2026-06-26T17:42:37.959840,13.21824310,.0001959,87.9247,242.0953,94.1980,265.9378,0,U,54653,999,17278,-.61819E-4,-.13E-6,0
ONEWEB-0587,2022-166N,2026-06-26T14:19:09.618240,13.21824596,.0002216,87.9260,242.0980,106.9700,253.1677,0,U,54654,999,17292,.22434E-3,.106E-5,0
ONEWEB-0589,2022-166P,2026-06-26T17:37:47.343072,13.21823991,.0002094,87.9245,242.0815,73.8686,286.2678,0,U,54655,999,17280,-.76406E-4,-.19E-6,0
ONEWEB-0590,2022-166Q,2026-06-26T16:24:54.138816,13.21827239,.0002492,87.9255,242.0824,93.9966,266.1453,0,U,54656,999,17278,.11268E-3,.6E-6,0
ONEWEB-0591,2022-166R,2026-06-26T16:42:04.535712,13.21826667,.0002104,87.9247,242.0941,96.5272,263.6102,0,U,54657,999,17281,-.16301E-3,-.54E-6,0
ONEWEB-0592,2022-166S,2026-06-26T16:46:53.230944,13.21828051,.0002051,87.9255,242.0723,97.8166,262.3201,0,U,54658,999,17269,-.10319E-4,.9E-7,0
ONEWEB-0593,2022-166T,2026-06-26T17:18:24.069024,13.21824875,.0001906,87.9247,242.0791,96.0396,264.0955,0,U,54659,999,17280,-.26604E-3,-.97E-6,0
ONEWEB-0594,2022-166U,2026-06-26T10:31:26.830272,13.21828204,.0001989,87.9245,242.1515,102.5822,257.5535,0,U,54660,999,17278,.95314E-4,.52E-6,0
ONEWEB-0595,2022-166V,2026-06-26T17:13:33.416832,13.21824252,.0002224,87.9258,242.0774,103.0624,257.0758,0,U,54661,999,17279,-.34005E-3,-.127E-5,0
ONEWEB-0596,2022-166W,2026-06-26T14:48:12.981888,13.21827586,.0002131,87.9249,242.1082,100.0377,260.0998,0,U,54662,999,17278,-.19025E-3,-.66E-6,0
ONEWEB-0597,2022-166X,2026-06-26T16:10:34.547808,13.21826861,.0002005,87.9247,242.0999,94.8065,265.3298,0,U,54663,999,17279,.82906E-4,.47E-6,0
ONEWEB-0600,2022-166Y,2026-06-26T17:32:56.554368,13.21824513,.0001819,87.9247,242.0798,98.4366,261.6974,0,U,54664,999,17277,-.31979E-4,0,0
ONEWEB-0601,2022-166Z,2026-06-26T17:20:50.903232,13.21689396,.0003887,87.9248,242.0977,76.9032,283.2536,0,U,54665,999,17296,.64167E-1,.26539E-3,0
ONEWEB-0602,2022-166AA,2026-06-26T16:31:09.550272,13.21826886,.000177,87.9245,242.1104,98.8277,261.3057,0,U,54666,999,17280,-.18649E-3,-.64E-6,0
ONEWEB-0603,2022-166AB,2026-06-26T16:39:38.860992,13.21826844,.0001976,87.9255,242.0671,95.9055,264.2304,0,U,54667,999,17273,-.12477E-3,-.39E-6,0
ONEWEB-0604,2022-166AC,2026-06-26T16:22:39.574272,13.21828094,.0002064,87.9257,242.0852,100.4378,259.6989,0,U,54668,999,17269,.36481E-4,.28E-6,0
