ONEWEB-0531             
1 54146U 22138AK  26177.70262878 -.00000022  00000+0 -86908-4 0  9999
2 54146  87.9195 272.5389 0002850  95.6400 264.5058 13.20772269180565
ONEWEB-0535             
1 54147U 22138AL  26177.63220970  .00000039  00000+0  65891-4 0  9993
2 54147  87.9186 303.0775 0002120  92.8125 267.3250 13.19726110178089
ONEWEB-0536             
1 54148U 22138AM  26177.68915692  .00000018  00000+0  12825-4 0  9997
2 54148  87.9185 272.5634 0003085  98.7555 261.3928 13.20771650180558
ONEWEB-0527             
1 54642U 22166A   26177.71439118 -.00000124  00000+0 -33200-3 0  9994
2 54642  87.9248 242.1017 0002057  99.9545 260.1821 13.21822988172793
ONEWEB-0528             
1 54643U 22166B   26177.71522510 -.00000142  00000+0 -37529-3 0  9992
2 54643  87.9249 242.1041 0001991 104.3737 255.7618 13.21824231172801
ONEWEB-0539             
1 54644U 22166C   26177.67737316  .00000064  00000+0  12391-3 0  9991
2 54644  87.9258 242.0835 0001892  91.9812 268.1538 13.21827514172791
ONEWEB-0540             
1 54645U 22166D   26177.68423465  .00000024  00000+0  26075-4 0  9991
2 54645  87.9245 242.1118 0002016  94.7885 265.3480 13.21827470172788
ONEWEB-0542             
1 54646U 22166E   26177.61177492  .00000002  00000+0 -25588-4 0  9996
2 54646  87.9257 242.0955 0001891  90.6764 269.4586 13.21824514172789
ONEWEB-0545             
1 54647U 22166F   26177.72783875 -.00000035  00000+0 -11617-3 0  9991
2 54647  87.9248 242.0835 0001900  82.5609 277.5740 13.21828048172762
ONEWEB-0580             
1 54648U 22166G   26177.70258406 -.00000058  00000+0 -17105-3 0  9990
2 54648  87.9247 242.0882 0002089  86.3149 273.8224 13.21827851172806
ONEWEB-0582             
1 54649U 22166H   26177.59326850  .00000073  00000+0  14555-3 0  9998
2 54649  87.9248 242.1027 0001948  85.3692 274.7664 13.21827348172769
ONEWEB-0583             
1 54650U 22166J   26177.68074376 -.00000425  00000+0 -10596-2 0  9996
2 54650  87.9243 242.1080 0002033  93.9949 266.1418 13.21826899172785
ONEWEB-0584             
1 54651U 22166K   26177.70091775  .00001051  00000+0  25137-2 0  9993
2 54651  87.9236 242.0909 0002507  95.7085 264.4335 13.21833428172778
ONEWEB-0585             
1 54652U 22166L   26177.72447874 -.00000054  00000+0 -16285-3 0  9990
2 54652  87.9250 242.0726 0002085 102.6332 257.5035 13.21826883172784
ONEWEB-0586             
1 54653U 22166M   26177.73793935 -.00000013  00000+0 -61819-4 0  9993
2 54653  87.9247 242.0953 0001959  94.1980 265.9378 13.21824310172782
ONEWEB-0587             
1 54654U 22166N   26177.59663910  .00000106  00000+0  22434-3 0  9997
2 54654  87.9260 242.0980 0002216 106.9700 253.1677 13.21824596172920
ONEWEB-0589             
1 54655U 22166P   26177.73457573 -.00000019  00000+0 -76406-4 0  9994
2 54655  87.9245 242.0815 0002094  73.8686 286.2678 13.21823991172803
ONEWEB-0590             
1 54656U 22166Q   26177.68395994  .00000060  00000+0  11268-3 0  9995
2 54656  87.9255 242.0824 0002492  93.9966 266.1453 13.21827239172785
ONEWEB-0591             
1 54657U 22166R   26177.69588583 -.00000054  00000+0 -16301-3 0  9993
2 54657  87.9247 242.0941 0002104  96.5272 263.6102 13.21826667172817
ONEWEB-0592             
1 54658U 22166S   26177.69922721  .00000009  00000+0 -10319-4 0  9993
2 54658  87.9255 242.0723 0002051  97.8166 262.3201 13.21828051172693
ONEWEB-0593             
1 54659U 22166T   26177.72111191 -.00000097  00000+0 -26604-3 0  9990
2 54659  87.9247 242.0791 0001906  96.0396 264.0955 13.21824875172802
ONEWEB-0594             
1 54660U 22166U   26177.43850498  .00000052  00000+0  95314-4 0  9994
2 54660  87.9245 242.1515 0001989 102.5822 257.5535 13.21828204172783
ONEWEB-0595             
1 54661U 22166V   26177.71774788 -.00000127  00000+0 -34005-3 0  9997
2 54661  87.9258 242.0774 0002224 103.0624 257.0758 13.21824252172795
ONEWEB-0596             
1 54662U 22166W   26177.61681692 -.00000066  00000+0 -19025-3 0  9995
2 54662  87.9249 242.1082 0002131 100.0377 260.0998 13.21827586172780
ONEWEB-0597             
1 54663U 22166X   26177.67401097  .00000047  00000+0  82906-4 0  9997
2 54663  87.9247 242.0999 0002005  94.8065 265.3298 13.21826861172796
ONEWEB-0600             
1 54664U 22166Y   26177.73121012  .00000000  00000+0 -31979-4 0  9995
2 54664  87.9247 242.0798 0001819  98.4366 261.6974 13.21824513172770
ONEWEB-0601             
1 54665U 22166Z   26177.72281138  .00026539  00000+0  64167-1 0  9997
2 54665  87.9248 242.0977 0003887  76.9032 283.2536 13.21689396172962
ONEWEB-0602             
1 54666U 22166AA  26177.68830498 -.00000064  00000+0 -18649-3 0  9995
2 54666  87.9245 242.1104 0001770  98.8277 261.3057 13.21826886172801
ONEWEB-0603             
1 54667U 22166AB  26177.69419978 -.00000039  00000+0 -12477-3 0  9998
2 54667  87.9255 242.0671 0001976  95.9055 264.2304 13.21826844172734
ONEWEB-0604             
1 54668U 22166AC  26177.68240248  .00000028  00000+0  36481-4 0  9998
2 54668  87.9257 242.0852 0002064 100.4378 259.6989 13.21828094172698
